YAOGAN-35 03A           
1 53316U 22088A   22240.30983207 -.00000391  00000+0 -14654-4 0  9998
2 53316  34.9972 297.5789 0007242 183.9094 259.2366 15.23027809  4532
CZ-2D R/B               
1 53317U 22088B   22240.20989448  .00013273  00000+0  51324-3 0  9996
2 53317  34.9979 297.8208 0007334 167.4619 231.7905 15.25383588  4525
YAOGAN-35 03B           
1 53318U 22088C   22240.16864669  .00003267  00000+0  13684-3 0  9998
2 53318  34.9990 298.4616 0003743 135.4463 253.3080 15.23057026  4517
CZ-2D DEB               
1 53319U 22088D   22240.20930398  .00008010  00000+0  31197-3 0  9997
2 53319  34.9985 297.8031 0008247 183.6010 221.0351 15.25223563  4520
YAOGAN-35 03C           
1 53320U 22088E   22240.16462900  .00004399  00000+0  18385-3 0  9993
2 53320  34.9986 298.4422 0004382 139.1225 245.4080 15.23027837  4527
YUZGU 10 (RS4S)         
1 53321U 98067TZ  22240.17187950  .00031819  00000+0  51555-3 0  9997
2 53321  51.6428 339.6540 0001292 157.7307 202.3740 15.52491572  5886
YUZGU 11                
1 53322U 98067UA  22240.17137070  .00032630  00000+0  52763-3 0  9990
2 53322  51.6424 339.6491 0001276 147.8357 212.2711 15.52534481  5835
COSMOS 2558             
1 53323U 22089A   22239.87871860  .00010818  00000+0  25998-3 0  9993
2 53323  97.2355 337.8110 0011725 171.1520 188.9937 15.41431128  4015
SL-4 R/B                
1 53324U 22089B   22239.74151808  .00056836  31109-5  29673-3 0  9997
2 53324  97.2535 338.9966 0097015 332.2368  27.3736 15.74262448  4075
2022-090A               
1 53346U 22090A   22240.10968953 -.00021357  00000+0 -96704-3 0  9993
2 53346  97.4671 312.7804 0008535 164.5365 254.8301 15.20844071  3652
2022-090B               
1 53347U 22090B   22240.22402889  .00004147  00000+0  17516-3 0  9998
2 53347  97.4707 312.9379 0012904 187.4762 237.4510 15.23745356  3661
2022-090C               
1 53348U 22090C   22240.22265932  .00005857  00000+0  24531-3 0  9999
2 53348  97.4698 312.9362 0012115 190.3126 232.8251 15.23866132  3661
CZ-4B R/B               
1 53349U 22090D   22240.16622314  .00032484  25495-5  22403-3 0  9997
2 53349  97.5134 314.4092 0151078 301.1239  57.5271 15.60875236  3754
SBIRS GEO-6 (USA 336)   
1 53355U 22092A   22239.79559611  .00000114  00000+0  00000+0 0  9991
2 53355   6.5609 312.3779 0002167 335.2386 190.0429  1.00259671   306
ATLAS 5 CENTAUR R/B     
1 53356U 22092B   22239.74144838 -.00000063  00000+0  00000+0 0  9992
2 53356  16.4325 310.6315 5658709 181.7484 174.7808  1.99524777   463
PRC TEST SPACECRAFT2    
1 53357U 22093A   22240.06465331  .00002326  00000+0  56913-4 0  9997
2 53357  49.9927  47.4459 0178149 243.5442 114.7172 15.30887764  3591
CZ-2F R/B               
1 53358U 22093B   22239.86163232  .00007602  00000+0  15067-3 0  9995
2 53358  49.9912  48.3757 0179263 244.3356 113.8992 15.32620906  3559
CZ-2F DEB               
1 53359U 22093C   22239.87019743  .00100872  00000+0  17939-2 0  9996
2 53359  50.3057  50.3540 0229058 259.2066  98.3036 15.25449888  3545
CZ-2F DEB               
1 53360U 22093D   22239.73766486  .00092053  00000+0  18097-2 0  9993
2 53360  50.3295  51.7693 0241082 252.4109 105.0385 15.20932424  3506
CZ-2F DEB               
1 53361U 22093E   22239.69762181  .00066099  00000+0  17213-2 0  9997
2 53361  49.7534  55.0439 0333891 240.8123 115.9033 14.97171588  3450
CZ-2F DEB               
1 53362U 22093F   22239.94780363  .00073401  00000+0  19636-2 0  9994
2 53362  49.8064  54.4563 0347030 238.4183 118.2447 14.93986622  3487
CZ-2F DEB               
1 53363U 22093G   22239.29164737  .00513548  00000+0  48089-2 0  9999
2 53363  50.0279  49.8366 0171455 255.6225 102.5657 15.49130946  3495
CZ-2F DEB               
1 53364U 22093H   22239.96289567  .00000346  00000+0  45795-4 0  9993
2 53364  50.0294  53.5071 0110413 292.2892  66.6373 15.00047226  3492
DANURI (KPLO)           
1 53365U 22094A   22216.96995833  .00001843 -58274-5  00000+0 0  9991
2 53365  29.5000 147.2458 0003300 140.4700 307.5200 16.09976711    07
2022-095A               
1 53367U 22095A   22240.07849863  .00003488  00000+0  13312-3 0  9992
2 53367  97.4097 313.8011 0078980  12.0843 103.9053 15.24438389  2885
2022-095B               
1 53368U 22095B   22240.20138949  .00003590  00000+0  13602-3 0  9990
2 53368  97.4093 313.9272 0079091  10.9419  73.0446 15.24646543  2899
2022-095C               
1 53369U 22095C   22240.20018377  .00002488  00000+0  95047-4 0  9992
2 53369  97.4094 313.9296 0078895  10.5518  74.0057 15.24718830  2892
2022-096A               
1 53370U 22096A   22240.17407155  .00001590  00000+0  68032-4 0  9994
2 53370  97.4350 141.4926 0001905  86.3296  72.0016 15.24288279  2897
2022-096B               
1 53371U 22096B   22240.17220455  .00002671  00000+0  11165-3 0  9996
2 53371  97.4357 141.4968 0003263  98.9415  59.7916 15.24473238  2894
2022-096C               
1 53372U 22096C   22240.17376411  .00002599  00000+0  10871-3 0  9993
2 53372  97.4358 141.4973 0003231  99.9945  68.0660 15.24482656  2877
RS29S (SXC3-2110 CYCLO*)
1 53373U 22096D   22240.17088137  .00003779  00000+0  15614-3 0  9990
2 53373  97.4358 141.4970 0003594 100.5611  58.5106 15.24613613  2874
RS32S (SXC3-212 MONITO*)
1 53374U 22096E   22240.17002690  .00003912  00000+0  16100-3 0  9991
2 53374  97.4353 141.4995 0003764  95.2618  66.2600 15.24720765  2875
RS34S (SXC3-218 KUZBAS*)
1 53375U 22096F   22240.03295755  .00003482  00000+0  14365-3 0  9996
2 53375  97.4345 141.3646 0003650  93.6400  37.0177 15.24720864  2857
RS23S (SXC3-21 UTMN)    
1 53376U 22096G   22240.29829595  .00000108  00000+0  72430-5 0  9991
2 53376  97.4354 141.6259 0003714  87.0206  61.6581 15.24762646  2893
RS28S (SXC3-214 MIET-A*)
1 53377U 22096H   22240.29799453  .00004650  00000+0  19040-3 0  9993
2 53377  97.4347 141.6279 0003610 101.4093  47.5684 15.24791529  2897
RS26S (KAI-1)           
1 53378U 22096J   22240.22673024  .00002950  00000+0  12181-3 0  9992
2 53378  97.4352 141.5585 0003680  88.0762  32.3909 15.24814167  2888
2022-096K               
1 53379U 22096K   22240.08930260  .00002683  00000+0  11005-3 0  9992
2 53379  97.4356 141.4313 0005051  48.0727  59.1570 15.25112196  2865
2022-096L               
1 53380U 22096L   22240.09007311  .00002719  00000+0  11144-3 0  9991
2 53380  97.4348 141.4325 0005218  44.9621  67.1403 15.25122699  2867
RS19S (SXC3-219 ISOI)   
1 53381U 22096M   22240.02596750  .00003446  00000+0  14002-3 0  9999
2 53381  97.4350 141.3717 0005499  43.6164  82.7185 15.25226114  2850
RS8S (SXC3-2111 RESHUC*)
1 53382U 22096N   22240.08944521  .00003023  00000+0  12321-3 0  9992
2 53382  97.4350 141.4358 0005489  44.5852  70.3754 15.25225597  2866
RS21S (CUBESX-HSE-2)    
1 53383U 22096P   22240.08894448  .00003235  00000+0  13140-3 0  9990
2 53383  97.4347 141.4355 0005545  43.4254  72.6781 15.25287028  2869
RS30S (SXC3-217 SIREN)  
1 53384U 22096Q   22240.29161700  .00003072  00000+0  12484-3 0  9991
2 53384  97.4354 141.6377 0005567  43.5978 106.1691 15.25307346  2894
RS20S (GEOSCAN-EDELVEIS)
1 53385U 22096R   22240.08679032  .00004191  00000+0  16840-3 0  9994
2 53385  97.4351 141.4391 0006194  41.0918  75.0262 15.25479990  2893
RS33S (SXC3-215 VIZARD) 
1 53386U 22096S   22240.22164571  .00005037  00000+0  20030-3 0  9994
2 53386  97.4347 141.5782 0006902  40.9596 110.1988 15.25723033  2909
2022-095D               
1 53387U 22095D   22240.18780258  .00002134  00000+0  78581-4 0  9995
2 53387  97.4074 313.9345 0084336   6.8145  77.0751 15.25687492  2902
STARLINK-4522           
1 53388U 22097A   22239.91667824 -.01110588  00000+0 -92239-2 0  9990
2 53388  53.2176 160.3521 0001034  72.4918 269.8319 15.72229801  1309
STARLINK-4523           
1 53389U 22097B   22240.25001157  .00141795  00000+0  10381-2 0  9990
2 53389  53.2197 158.7209 0001392  74.9332 356.3645 15.72267891  3274
STARLINK-4517           
1 53390U 22097C   22240.25001157 -.01104238  00000+0 -94831-2 0  9998
2 53390  53.2173 158.7034 0001024  75.2466 354.9634 15.71430898  3270
STARLINK-4521           
1 53391U 22097D   22239.91667824 -.01110725  00000+0 -92164-2 0  9994
2 53391  53.2176 160.3512 0001051  68.1634 275.9784 15.72251825  1304
STARLINK-4535           
1 53392U 22097E   22240.25001157  .00142359  00000+0  10488-2 0  9999
2 53392  53.2198 158.7186 0000534  54.8485  18.1359 15.72117271  3277
STARLINK-4530           
1 53393U 22097F   22239.91667824 -.01110297  00000+0 -92098-2 0  9996
2 53393  53.2176 160.3513 0001001  88.0826 256.6658 15.72258968  1307
STARLINK-4544           
1 53394U 22097G   22240.25001157  .00072381  00000+0  40813-3 0  9994
2 53394  53.2195 158.3762 0007149 296.1242 304.6297 15.78514456  3279
STARLINK-4534           
1 53395U 22097H   22239.91667824 -.01111034  00000+0 -92106-2 0  9998
2 53395  53.2176 160.3512 0001024  71.9968 273.9624 15.72274035  1309
STARLINK-4524           
1 53396U 22097J   22240.25001157 -.01104073  00000+0 -94550-2 0  9999
2 53396  53.2174 158.7069 0001035  74.9932   0.7452 15.71496596  3272
STARLINK-4515           
1 53397U 22097K   22240.25001157 -.01104091  00000+0 -94641-2 0  9991
2 53397  53.2174 158.7054 0001007  84.3015 349.5948 15.71474702  3272
STARLINK-4512           
1 53398U 22097L   22239.91667824 -.01110937  00000+0 -91924-2 0  9999
2 53398  53.2177 160.3511 0001031  70.9064 278.6858 15.72317797  1300
STARLINK-4528           
1 53399U 22097M   22240.25001157 -.01104056  00000+0 -94578-2 0  9993
2 53399  53.2174 158.7062 0001032  75.4689 359.6555 15.71489272  3273
STARLINK-4520           
1 53400U 22097N   22240.25001157 -.01104026  00000+0 -94427-2 0  9996
2 53400  53.2175 158.7100 0001033  76.9562   1.2369 15.71526076  3274
STARLINK-4525           
1 53401U 22097P   22240.25001157 -.01103851  00000+0 -94501-2 0  9995
2 53401  53.2174 158.7069 0001005  87.3066 349.0458 15.71503772  3272
